{
  "type": "FeatureCollection",
  "features": [
    {
      "type": "Feature",
      "properties": {
        "norad_id": 66809,
        "name": "STARLINK-35979",
        "group": "last-30-days",
        "lat": -39.66803847011647,
        "lon": -177.31899736419982,
        "alt_km": 314.7615396747906,
        "timestamp": "2025-12-13T18:50:03.174146+00:00",
        "meta_object_name": "STARLINK-35979",
        "meta_object_id": "2025-278U",
        "meta_epoch": "2025-12-13T02:30:27.588672",
        "meta_mean_motion": 15.86787624,
        "meta_eccentricity": 0.00012538,
        "meta_inclination": 42.997,
        "meta_ra_of_asc_node": 249.7587,
        "meta_arg_of_pericenter": 232.3097,
        "meta_mean_anomaly": 127.7663,
        "meta_ephemeris_type": 0,
        "meta_classification_type": "U",
        "meta_norad_cat_id": 66809,
        "meta_element_set_no": 999,
        "meta_rev_at_epoch": 189,
        "meta_bstar": -0.00075235517,
        "meta_mean_motion_dot": -0.001954,
        "meta_mean_motion_ddot": 0,
        "tle_line1": "1 66809U 25278U   25347.10448598 -.00195400  00000+0 -75236-3 0  9999",
        "tle_line2": "2 66809  42.9970 249.7587 0001253 232.3097 127.7663 15.86787624  1895"
      },
      "geometry": {
        "type": "Point",
        "coordinates": [
          -177.31899736419982,
          -39.66803847011647
        ]
      }
    },
    {
      "type": "Feature",
      "properties": {
        "norad_id": 66810,
        "name": "STARLINK-36046",
        "group": "last-30-days",
        "lat": -36.89322146120432,
        "lon": -168.1297274127161,
        "alt_km": 301.14255593895996,
        "timestamp": "2025-12-13T18:50:03.174157+00:00",
        "meta_object_name": "STARLINK-36046",
        "meta_object_id": "2025-278V",
        "meta_epoch": "2025-12-13T01:00:19.749600",
        "meta_mean_motion": 15.89788073,
        "meta_eccentricity": 0.00029914,
        "meta_inclination": 42.9974,
        "meta_ra_of_asc_node": 250.1521,
        "meta_arg_of_pericenter": 285.6834,
        "meta_mean_anomaly": 74.371,
        "meta_ephemeris_type": 0,
        "meta_classification_type": "U",
        "meta_norad_cat_id": 66810,
        "meta_element_set_no": 999,
        "meta_rev_at_epoch": 188,
        "meta_bstar": 0.0022644771,
        "meta_mean_motion_dot": 0.00758232,
        "meta_mean_motion_ddot": 0,
        "tle_line1": "1 66810U 25278V   25347.04189525  .00758232  00000+0  22645-2 0  9997",
        "tle_line2": "2 66810  42.9974 250.1521 0002991 285.6834  74.3710 15.89788073  1886"
      },
      "geometry": {
        "type": "Point",
        "coordinates": [
          -168.1297274127161,
          -36.89322146120432
        ]
      }
    },
    {
      "type": "Feature",
      "properties": {
        "norad_id": 66811,
        "name": "STARLINK-36045",
        "group": "last-30-days",
        "lat": -35.52566134765558,
        "lon": -164.48853486686664,
        "alt_km": 292.3587390616203,
        "timestamp": "2025-12-13T18:50:03.174166+00:00",
        "meta_object_name": "STARLINK-36045",
        "meta_object_id": "2025-278W",
        "meta_epoch": "2025-12-13T01:00:27.694944",
        "meta_mean_motion": 15.89484454,
        "meta_eccentricity": 0.00029504,
        "meta_inclination": 42.997,
        "meta_ra_of_asc_node": 250.1519,
        "meta_arg_of_pericenter": 282.9701,
        "meta_mean_anomaly": 77.0844,
        "meta_ephemeris_type": 0,
        "meta_classification_type": "U",
        "meta_norad_cat_id": 66811,
        "meta_element_set_no": 999,
        "meta_rev_at_epoch": 188,
        "meta_bstar": 0.0092253817,
        "meta_mean_motion_dot": 0.03295879,
        "meta_mean_motion_ddot": 0,
        "tle_line1": "1 66811U 25278W   25347.04198721  .03295879  00000+0  92254-2 0  9995",
        "tle_line2": "2 66811  42.9970 250.1519 0002950 282.9701  77.0844 15.89484454  1882"
      },
      "geometry": {
        "type": "Point",
        "coordinates": [
          -164.48853486686664,
          -35.52566134765558
        ]
      }
    },
    {
      "type": "Feature",
      "properties": {
        "norad_id": 66812,
        "name": "STARLINK-36054",
        "group": "last-30-days",
        "lat": -39.151517514343986,
        "lon": -175.3501593120614,
        "alt_km": 315.39644246756507,
        "timestamp": "2025-12-13T18:50:03.174176+00:00",
        "meta_object_name": "STARLINK-36054",
        "meta_object_id": "2025-278X",
        "meta_epoch": "2025-12-13T00:59:17.520000",
        "meta_mean_motion": 15.86937598,
        "meta_eccentricity": 0.00028433,
        "meta_inclination": 42.9974,
        "meta_ra_of_asc_node": 250.1444,
        "meta_arg_of_pericenter": 236.1204,
        "meta_mean_anomaly": 123.94,
        "meta_ephemeris_type": 0,
        "meta_classification_type": "U",
        "meta_norad_cat_id": 66812,
        "meta_element_set_no": 999,
        "meta_rev_at_epoch": 188,
        "meta_bstar": -0.0023443986,
        "meta_mean_motion_dot": -0.00586394,
        "meta_mean_motion_ddot": 0,
        "tle_line1": "1 66812U 25278X   25347.04117500 -.00586394  00000+0 -23444-2 0  9991",
        "tle_line2": "2 66812  42.9974 250.1444 0002843 236.1204 123.9400 15.86937598  1882"
      },
      "geometry": {
        "type": "Point",
        "coordinates": [
          -175.3501593120614,
          -39.151517514343986
        ]
      }
    },
    {
      "type": "Feature",
      "properties": {
        "norad_id": 66813,
        "name": "STARLINK-36042",
        "group": "last-30-days",
        "lat": -39.35831514369244,
        "lon": -176.11780672545353,
        "alt_km": 314.48056456629365,
        "timestamp": "2025-12-13T18:50:03.174188+00:00",
        "meta_object_name": "STARLINK-36042",
        "meta_object_id": "2025-278Y",
        "meta_epoch": "2025-12-13T02:29:58.694784",
        "meta_mean_motion": 15.86566064,
        "meta_eccentricity": 0.00031581,
        "meta_inclination": 42.9975,
        "meta_ra_of_asc_node": 249.7571,
        "meta_arg_of_pericenter": 285.3486,
        "meta_mean_anomaly": 74.7038,
        "meta_ephemeris_type": 0,
        "meta_classification_type": "U",
        "meta_norad_cat_id": 66813,
        "meta_element_set_no": 999,
        "meta_rev_at_epoch": 189,
        "meta_bstar": -0.0015776511,
        "meta_mean_motion_dot": -0.00395955,
        "meta_mean_motion_ddot": 0,
        "tle_line1": "1 66813U 25278Y   25347.10415156 -.00395955  00000+0 -15777-2 0  9998",
        "tle_line2": "2 66813  42.9975 249.7571 0003158 285.3486  74.7038 15.86566064  1894"
      },
      "geometry": {
        "type": "Point",
        "coordinates": [
          -176.11780672545353,
          -39.35831514369244
        ]
      }
    },
    {
      "type": "Feature",
      "properties": {
        "norad_id": 66814,
        "name": "STARLINK-35984",
        "group": "last-30-days",
        "lat": -27.031267561575284,
        "lon": -147.71540973252,
        "alt_km": 307.54925213292154,
        "timestamp": "2025-12-13T18:50:03.174201+00:00",
        "meta_object_name": "STARLINK-35984",
        "meta_object_id": "2025-278Z",
        "meta_epoch": "2025-12-12T05:17:39.039072",
        "meta_mean_motion": 15.89263924,
        "meta_eccentricity": 0.00022268,
        "meta_inclination": 42.9971,
        "meta_ra_of_asc_node": 255.1754,
        "meta_arg_of_pericenter": 272.7868,
        "meta_mean_anomaly": 87.2751,
        "meta_ephemeris_type": 0,
        "meta_classification_type": "U",
        "meta_norad_cat_id": 66814,
        "meta_element_set_no": 999,
        "meta_rev_at_epoch": 175,
        "meta_bstar": -0.00078876214,
        "meta_mean_motion_dot": -0.00230906,
        "meta_mean_motion_ddot": 0,
        "tle_line1": "1 66814U 25278Z   25346.22059073 -.00230906  00000+0 -78876-3 0  9997",
        "tle_line2": "2 66814  42.9971 255.1754 0002226 272.7868  87.2751 15.89263924  1752"
      },
      "geometry": {
        "type": "Point",
        "coordinates": [
          -147.71540973252,
          -27.031267561575284
        ]
      }
    },
    {
      "type": "Feature",
      "properties": {
        "norad_id": 66815,
        "name": "STARLINK-35985",
        "group": "last-30-days",
        "lat": -23.773076526616958,
        "lon": -142.73872263528747,
        "alt_km": 291.3229770637827,
        "timestamp": "2025-12-13T18:50:03.174211+00:00",
        "meta_object_name": "STARLINK-35985",
        "meta_object_id": "2025-278AA",
        "meta_epoch": "2025-12-12T18:52:41.807136",
        "meta_mean_motion": 15.89981059,
        "meta_eccentricity": 0.00144492,
        "meta_inclination": 42.9985,
        "meta_ra_of_asc_node": 251.6744,
        "meta_arg_of_pericenter": 289.6758,
        "meta_mean_anomaly": 70.2558,
        "meta_ephemeris_type": 0,
        "meta_classification_type": "U",
        "meta_norad_cat_id": 66815,
        "meta_element_set_no": 999,
        "meta_rev_at_epoch": 305,
        "meta_bstar": 0.0028507856,
        "meta_mean_motion_dot": 0.00887373,
        "meta_mean_motion_ddot": 0.00032777577,
        "tle_line1": "1 66815U 25278AA  25346.78659499  .00887373  32778-3  28508-2 0  9998",
        "tle_line2": "2 66815  42.9985 251.6744 0014449 289.6758  70.2558 15.89981059  3051"
      },
      "geometry": {
        "type": "Point",
        "coordinates": [
          -142.73872263528747,
          -23.773076526616958
        ]
      }
    }
  ]
}